satname,norad_id,inclination_deg,eccentricity,mean_motion_rev_per_day,perigee_km,apogee_km,l1,l2
STARLINK-1008,44714,53.0514,0.0001316,15.06396459,546.3110333161021,548.1337879129751,1 44714U 19074B   25259.67702532  .00004895  00000+0  34734-3 0  9995,2 44714  53.0514 247.7921 0001316  80.9107 279.2031 15.06396459322524
STARLINK-1010,44716,53.0513,0.0010346,15.77301063,331.1425913899793,345.03981078366814,1 44716U 19074D   25260.20765133  .00145106  00000+0  85094-3 0  9990,2 44716  53.0513 196.3198 0010346  44.4571 315.7277 15.77301063323279
STARLINK-1011,44717,53.0505,0.0006708,15.67092054,362.70394585188296,371.75352852489414,1 44717U 19074E   25260.25009259  .00137769  00000+0  12489-2 0  9999,2 44717  53.0505 249.6692 0006708  35.6470 132.5872 15.67092054  5942
STARLINK-1012,44718,53.0497,0.0001925,15.06395629,545.8918222798975,548.5580866323644,1 44718U 19074F   25259.98662818  .00000250  00000+0  35695-4 0  9994,2 44718  53.0497 246.4037 0001925  88.4812 271.6397 15.06395629322567
STARLINK-1015,44721,53.0438,0.0001478,15.97243215,281.08683868740445,283.05559623648605,1 44721U 19074J   25260.25009259  .00409227  79895-4  91673-3 0  9991,2 44721  53.0438 184.2241 0001478  35.6960   9.0532 15.97243215  6020
STARLINK-1017,44723,53.0546,0.0003605,15.10782673,531.3200210513178,536.3035361206776,1 44723U 19074L   25259.68657198  .00028077  00000+0  16828-2 0  9994,2 44723  53.0546 246.3467 0003605 351.4245   8.6684 15.10782673322543
STARLINK-1019,44724,53.0539,0.0001327,15.06410807,546.2594468793968,548.0974255961746,1 44724U 19074M   25259.38582907  .00002185  00000+0  16549-3 0  9990,2 44724  53.0539 249.1014 0001327  82.3080 277.8060 15.06410807322473
STARLINK-1020,44725,53.0526,0.0001431,15.06391686,546.2460182430177,548.2280602930568,1 44725U 19074N   25260.05481579  .00001226  00000+0  10118-3 0  9991,2 44725  53.0526 266.0980 0001431 102.1112 258.0037 15.06391686322291
STARLINK-1021,44726,53.0442,0.0002851,15.91361058,296.56973230136464,300.3767354567217,1 44726U 19074P   25260.25009259  .00283629  41101-4  87245-3 0  9991,2 44726  53.0442 190.0126 0002851  23.1428 128.1545 15.91361058  6009
STARLINK-1029,44734,53.0503,0.0006798,15.85473881,310.44074716973137,319.5407236387864,1 44734U 19074X   25260.25009259  .00151305  00000+0  60845-3 0  9990,2 44734  53.0503 113.7148 0006798 106.2525 346.2783 15.85473881  5992
STARLINK-1030,44735,53.0339,0.0004411,16.22914716,208.74322312837285,214.55673320050846,1 44735U 19074Y   25260.42373968  .02430602  11885-4  96916-3 0  9999,2 44735  53.0339 204.6348 0004411 225.9317 134.1360 16.22914716323188
STARLINK-1031,44736,53.0539,0.0007745,15.37128782,449.31276740734484,459.89668434072337,1 44736U 19074Z   25259.49420773  .00087183  00000+0  23455-2 0  9991,2 44736  53.0539 249.2863 0007745   2.7536 357.3508 15.37128782322496
STARLINK-1036,44741,53.0537,0.0001216,15.06359225,546.4943926782689,548.178667840828,1 44741U 19074AE  25260.01797001  .00008124  00000+0  56429-3 0  9994,2 44741  53.0537 266.2645 0001216 104.5393 255.5731 15.06359225322295
STARLINK-1039,44744,53.0513,0.0005011,15.09210327,535.1456961812564,542.0776617072943,1 44744U 19074AH  25259.49183010  .00023622  00000+0  14819-2 0  9992,2 44744  53.0513 288.0334 0005011 334.7606  25.3139 15.09210327321948
STARLINK-1042,44747,53.0447,0.000318,15.40745853,441.7373837265177,446.07620357928226,1 44747U 19074AL  25259.99658976  .00017624  00000+0  43323-3 0  9996,2 44747  53.0447 202.4228 0003180  26.5758 333.5408 15.40745853323215
STARLINK-1043,44748,53.0526,9.35e-05,15.0640683,546.5431069181268,547.8381431840116,1 44748U 19074AM  25259.45953399  .00002416  00000+0  18098-3 0  9999,2 44748  53.0526 288.7703 0000935  80.3796 279.7299 15.06406830321931
STARLINK-1046,44751,53.0492,0.0001433,15.06392126,546.2432848127528,548.2280966259123,1 44751U 19074AQ  25260.07140915 -.00000215  00000+0  44346-5 0  9998,2 44751  53.0492 286.0234 0001433  90.0847 270.0307 15.06392126322023
STARLINK-1047,44752,53.0716,0.000484,15.27899769,478.7714088954772,485.4121103347843,1 44752U 19074AR  25259.31789112  .00009953  00000+0  37281-3 0  9997,2 44752  53.0716 237.7879 0004840  43.7393 316.3989 15.27899769322643
STARLINK-1048,44753,53.0547,0.0001398,15.06392777,546.2655286582021,548.2018623046588,1 44753U 19074AS  25259.96451584 -.00000064  00000+0  14598-4 0  9990,2 44753  53.0547 246.5027 0001398  82.9177 277.1971 15.06392777322569
STARLINK-1053,44758,53.0411,0.0003384,15.54889604,400.1789972918632,404.76811451609865,1 44758U 19074AX  25260.26680483  .00041391  00000+0  61269-3 0  9995,2 44758  53.0411 219.5966 0003384  65.0446 295.0915 15.54889604322980
STARLINK-1054,44759,53.0453,0.0011112,15.64309787,367.7201964578844,382.72886712613854,1 44759U 19074AY  25260.25009259  .00179684  00000+0  18063-2 0  9991,2 44759  53.0453 249.6458 0011112   4.3352 180.4504 15.64309787  5896
STARLINK-1056,44761,53.0432,0.0010997,15.75969133,334.484817220683,349.2648112048628,1 44761U 19074BA  25260.25009259  .00208976  00000+0  12879-2 0  9990,2 44761  53.0432 239.4050 0010997  27.7949 234.0988 15.75969133  5927
STARLINK-1057,44762,53.0422,0.0003276,15.93640747,289.9193224808587,294.2896647074622,1 44762U 19074BB  25260.25009259  .00379326  67123-4  10328-2 0  9990,2 44762  53.0422 210.7508 0003276  37.5170 163.9357 15.93640747  6001
STARLINK-1060,44765,53.0537,9.03e-05,15.28491876,479.7006501485912,480.93928747715927,1 44765U 19074BE  25260.25009259  .01384078  00000+0  44647-1 0  9990,2 44765  53.0537 263.9900 0000903  84.8803 209.3467 15.28491876  5695
STARLINK-1063,44768,53.0538,0.0001517,15.0639132,546.1875816039428,548.2887404277953,1 44768U 19074BH  25260.25938403 -.00002416  00000+0 -14336-3 0  9993,2 44768  53.0538 285.1789 0001517  87.1522 272.9641 15.06391320322068
STARLINK-1067,44771,53.0509,0.000107,15.06419114,546.4119708730923,547.893982928149,1 44771U 19074BL  25259.78388439 -.00011484  00000+0 -75291-3 0  9993,2 44771  53.0509 287.3144 0001070  73.2517 286.8589 15.06419114321980
STARLINK-1068,44772,53.0539,0.0001476,15.06415289,546.14252522073,548.1868742824972,1 44772U 19074BM  25260.04006609  .00003641  00000+0  26311-3 0  9994,2 44772  53.0539 266.1650 0001476  80.6599 279.4557 15.06415289322290
STARLINK-1112,44925,53.0534,0.0004498,15.45320073,427.3752663844725,433.50026024154886,1 44925U 20001M   25260.02959157  .00021544  00000+0  45232-3 0  9994,2 44925  53.0534  17.6674 0004498 141.2883 218.8446 15.45320073314077
STARLINK-1114,44927,53.0563,0.0001256,15.06401936,546.3358013498455,548.0754474170908,1 44927U 20001P   25259.68069236  .00001152  00000+0  96202-4 0  9993,2 44927  53.0563  47.7768 0001256  86.7176 273.3957 15.06401936313624
STARLINK-1123,44930,53.0564,0.000131,15.06396574,546.3148361181256,548.1292801913623,1 44930U 20001S   25259.69543630  .00001301  00000+0  10623-3 0  9991,2 44930  53.0564  47.7094 0001310  89.1958 270.9181 15.06396574313620
STARLINK-1144,44933,53.0488,0.0010926,15.49409535,411.026310591903,425.87821745164274,1 44933U 20001V   25260.23374586  .00088035  00000+0  15642-2 0  9992,2 44933  53.0488 355.3117 0010926 283.5449  76.4341 15.49409535315707
STARLINK-1091,44940,53.0438,0.0004821,15.74250803,343.5218792053247,350.0060287051274,1 44940U 20001AC  25260.25009259  .00138135  00000+0  92904-3 0  9998,2 44940  53.0438 341.5570 0004821 282.8512  32.9245 15.74250803  5582
STARLINK-1094,44941,53.0569,0.0001359,15.06396856,546.2800376836731,548.162350040765,1 44941U 20001AD  25259.64199343  .00001426  00000+0  11462-3 0  9996,2 44941  53.0569  27.9488 0001359 122.7370 237.3750 15.06396856313890
STARLINK-1096,44942,52.9932,0.0002819,15.74963339,342.84032880753693,346.63068432673936,1 44942U 20001AE  25260.15205959  .00091995  00000+0  60480-3 0  9990,2 44942  52.9932 168.7354 0002819 122.4991 237.6300 15.74963339316996
STARLINK-1122,44949,53.0576,0.0001385,15.06387456,546.2908376583755,548.2091698584163,1 44949U 20001AM  25260.06219754 -.00000570  00000+0 -19380-4 0  9990,2 44949  53.0576  26.0600 0001385  96.2714 263.8433 15.06387456313953
STARLINK-1066,44954,53.0384,0.0001489,16.12639367,238.62730758445105,240.59807344228557,1 44954U 20001AS  25260.51079860  .00927326  52956-3  80929-3 0  9990,2 44954  53.0384 304.3223 0001489 355.3845   4.7176 16.12639367315089
STARLINK-1080,44961,53.0556,0.0001081,15.0638333,546.5140138563938,548.0112852606298,1 44961U 20001AZ  25259.99400755 -.00001368  00000+0 -72998-4 0  9997,2 44961  53.0556   6.3691 0001081  89.2324 270.8789 15.06383330314239
STARLINK-1090,44968,53.0568,0.0001123,15.06401943,546.4278869552127,547.9833189038309,1 44968U 20001BG  25259.99769157 -.00000494  00000+0 -14265-4 0  9990,2 44968  53.0568   6.3540 0001123  83.3810 276.7307 15.06401943314236
STARLINK-1107,44972,53.0134,0.0007845,15.54503257,398.2767141584518,408.9172547800845,1 44972U 20001BL  25259.40787349  .00079020  00000+0  11731-2 0  9996,2 44972  53.0134 301.1564 0007845  32.1729 327.9758 15.54503257315098
STARLINK-1132,45044,53.0552,0.0001325,15.06386544,546.335184798887,548.1704130956086,1 45044U 20006A   25260.22251764 -.00009111  00000+0 -59378-3 0  9997,2 45044  53.0552 325.3440 0001325  89.8377 270.2764 15.06386544310591
STARLINK-1131,45047,53.0584,0.0001372,15.06364838,546.369153892284,548.2694991082744,1 45047U 20006D   25260.26499042  .00004461  00000+0  31847-3 0  9999,2 45047  53.0584 345.6945 0001372  94.2575 265.8571 15.06364838310314
STARLINK-1134,45048,53.047,0.0007006,15.23034523,491.87722281322476,501.5102356310117,1 45048U 20006E   25259.46645548  .00035544  00000+0  14967-2 0  9993,2 45048  53.0470 333.0876 0007006 355.1363   4.9564 15.23034523310427
STARLINK-1156,45054,53.0558,0.0001377,15.06390722,546.2863694058997,548.1936182299978,1 45054U 20006L   25260.23542476  .00001063  00000+0  90294-4 0  9991,2 45054  53.0558 345.2898 0001377  75.9484 284.1658 15.06390722310317
